GLOBALSTAR M024         
1 25883U 99043A   24279.59096539 -.00000108  00000+0 -15322-2 0  9996
2 25883  52.0002 235.0789 0001898  34.1999 136.9272 11.10161685 86589
GLOBALSTAR M027         
1 25884U 99043B   24279.79382310  .00000009  00000+0  27290-2 0  9999
2 25884  52.0224 305.3991 0021107 300.6982  59.1732 11.04370527113139
GLOBALSTAR M054         
1 25885U 99043C   24279.83630634 -.00000112  00000+0 -10290-2 0  9999
2 25885  52.0111 115.2828 0006737 101.9396 271.2178 11.39204591 90067
GLOBALSTAR M053         
1 25886U 99043D   24279.65855591 -.00000064  00000+0  13131-3 0  9994
2 25886  52.0003  48.6795 0003443  23.5636 349.5070 11.27659104 90732
GLOBALSTAR M058         
1 25907U 99049A   24279.72946543 -.00000055  00000+0  39063-3 0  9992
2 25907  51.9940  68.6349 0002610 132.2650 227.8406 11.93184121511161
GLOBALSTAR M050         
1 25908U 99049B   24279.93154941 -.00000067  00000+0  24158-3 0  9991
2 25908  51.9971  94.7672 0008235 242.3483 271.3732 12.07441786117472
GLOBALSTAR M033         
1 25909U 99049C   24279.85703118  .00000053  00000+0  13909-2 0  9994
2 25909  51.9942 344.3774 0013223 102.3044 257.9284 12.20284363504696
GLOBALSTAR M055         
1 25910U 99049D   24279.78484723 -.00000035  00000+0  50806-3 0  9995
2 25910  52.0050   7.7068 0006629 325.9000  34.1425 12.29410424136997
